{"type": "FeatureCollection", "features": [ {"type": "Feature", "properties": {"norad_id": 34736, "name": "COSMOS 2251 DEB", "group": "cosmos-2251-debris", "lat": -63.746272893364896, "lon": -103.93446386563411, "alt_km": 438.3028087011335, "timestamp": "2025-12-10T18:57:00.460108+00:00", "meta": {"OBJECT_NAME": "COSMOS 2251 DEB", "OBJECT_ID": "1993-036ZE", "EPOCH": "2025-12-10T10:06:25.504992", "MEAN_MOTION": 15.45192633, "ECCENTRICITY": 0.0017257, "INCLINATION": 74.0018, "RA_OF_ASC_NODE": 41.2985, "ARG_OF_PERICENTER": 348.8512, "MEAN_ANOMALY": 11.2313, "EPHEMERIS_TYPE": 0, "CLASSIFICATION_TYPE": "U", "NORAD_CAT_ID": 34736, "ELEMENT_SET_NO": 999, "REV_AT_EPOCH": 88412, "BSTAR": 0.010786, "MEAN_MOTION_DOT": 0.00552262, "MEAN_MOTION_DDOT": 0}, "tle": {"line1": "1 34736U 93036ZE  25344.42112853  .00552262  00000+0  10786-1 0  9992", "line2": "2 34736  74.0018  41.2985 0017257 348.8512  11.2313 15.45192633884120"}}, "geometry": {"type": "Point", "coordinates": [-103.93446386563411, -63.746272893364896]}}, {"type": "Feature", "properties": {"norad_id": 34738, "name": "COSMOS 2251 DEB", "group": "cosmos-2251-debris", "lat": 39.83499495665388, "lon": -46.9246655935759, "alt_km": 764.938572690704, "timestamp": "2025-12-10T18:57:00.460118+00:00", "meta": {"OBJECT_NAME": "COSMOS 2251 DEB", "OBJECT_ID": "1993-036ZG", "EPOCH": "2025-12-10T11:57:12.732192", "MEAN_MOTION": 14.46293866, "ECCENTRICITY": 0.0047336, "INCLINATION": 74.0142, "RA_OF_ASC_NODE": 147.4556, "ARG_OF_PERICENTER": 294.1327, "MEAN_ANOMALY": 126.971, "EPHEMERIS_TYPE": 0, "CLASSIFICATION_TYPE": "U", "NORAD_CAT_ID": 34738, "ELEMENT_SET_NO": 999, "REV_AT_EPOCH": 87826, "BSTAR": 0.00050317, "MEAN_MOTION_DOT": 1.801e-05, "MEAN_MOTION_DDOT": 0}, "tle": {"line1": "1 34738U 93036ZG  25344.49806403  .00001801  00000+0  50317-3 0  9996", "line2": "2 34738  74.0142 147.4556 0047336 294.1327 126.9710 14.46293866878264"}}, "geometry": {"type": "Point", "coordinates": [-46.9246655935759, 39.83499495665388]}}, {"type": "Feature", "properties": {"norad_id": 34750, "name": "COSMOS 2251 DEB", "group": "cosmos-2251-debris", "lat": -10.78697803998764, "lon": 28.57580378252245, "alt_km": 669.4838511860007, "timestamp": "2025-12-10T18:57:00.460128+00:00", "meta": {"OBJECT_NAME": "COSMOS 2251 DEB", "OBJECT_ID": "1993-036ZU", "EPOCH": "2025-12-09T19:38:52.084032", "MEAN_MOTION": 14.61275497, "ECCENTRICITY": 0.00389919, "INCLINATION": 74.1082, "RA_OF_ASC_NODE": 207.3119, "ARG_OF_PERICENTER": 161.4678, "MEAN_ANOMALY": 323.8218, "EPHEMERIS_TYPE": 0, "CLASSIFICATION_TYPE": "U", "NORAD_CAT_ID": 34750, "ELEMENT_SET_NO": 999, "REV_AT_EPOCH": 88188, "BSTAR": 0.001570725, "MEAN_MOTION_DOT": 7.814e-05, "MEAN_MOTION_DDOT": 0}, "tle": {"line1": "1 34750U 93036ZU  25343.81865838  .00007814  00000+0  15707-2 0  9995", "line2": "2 34750  74.1082 207.3119 0038991 161.4678 323.8218 14.61275497881885"}}, "geometry": {"type": "Point", "coordinates": [28.57580378252245, -10.78697803998764]}}, {"type": "Feature", "properties": {"norad_id": 34752, "name": "COSMOS 2251 DEB", "group": "cosmos-2251-debris", "lat": 56.842237750096274, "lon": 30.60222209086657, "alt_km": 551.7568708348135, "timestamp": "2025-12-10T18:57:00.460138+00:00", "meta": {"OBJECT_NAME": "COSMOS 2251 DEB", "OBJECT_ID": "1993-036ZW", "EPOCH": "2025-12-10T01:04:15.987936", "MEAN_MOTION": 14.99826856, "ECCENTRICITY": 0.00478347, "INCLINATION": 74.0135, "RA_OF_ASC_NODE": 6.0894, "ARG_OF_PERICENTER": 135.411, "MEAN_ANOMALY": 225.0941, "EPHEMERIS_TYPE": 0, "CLASSIFICATION_TYPE": "U", "NORAD_CAT_ID": 34752, "ELEMENT_SET_NO": 999, "REV_AT_EPOCH": 89809, "BSTAR": 0.0012054282, "MEAN_MOTION_DOT": 0.00015282, "MEAN_MOTION_DDOT": 0}, "tle": {"line1": "1 34752U 93036ZW  25344.04462949  .00015282  00000+0  12054-2 0  9999", "line2": "2 34752  74.0135   6.0894 0047834 135.4110 225.0941 14.99826856898096"}}, "geometry": {"type": "Point", "coordinates": [30.60222209086657, 56.842237750096274]}}, {"type": "Feature", "properties": {"norad_id": 34754, "name": "COSMOS 2251 DEB", "group": "cosmos-2251-debris", "lat": 73.89689003841235, "lon": -31.492240110689128, "alt_km": 754.6643984300199, "timestamp": "2025-12-10T18:57:00.460148+00:00", "meta": {"OBJECT_NAME": "COSMOS 2251 DEB", "OBJECT_ID": "1993-036ZY", "EPOCH": "2025-12-10T10:59:41.962848", "MEAN_MOTION": 14.40476594, "ECCENTRICITY": 0.0029475, "INCLINATION": 74.0305, "RA_OF_ASC_NODE": 231.8226, "ARG_OF_PERICENTER": 348.3496, "MEAN_ANOMALY": 185.1534, "EPHEMERIS_TYPE": 0, "CLASSIFICATION_TYPE": "U", "NORAD_CAT_ID": 34754, "ELEMENT_SET_NO": 999, "REV_AT_EPOCH": 88100, "BSTAR": 0.00033455, "MEAN_MOTION_DOT": 1.043e-05, "MEAN_MOTION_DDOT": 0}, "tle": {"line1": "1 34754U 93036ZY  25344.45812457  .00001043  00000+0  33455-3 0  9998", "line2": "2 34754  74.0305 231.8226 0029475 348.3496 185.1534 14.40476594881000"}}, "geometry": {"type": "Point", "coordinates": [-31.492240110689128, 73.89689003841235]}}, {"type": "Feature", "properties": {"norad_id": 34755, "name": "COSMOS 2251 DEB", "group": "cosmos-2251-debris", "lat": 62.58432001445811, "lon": 79.39095833299514, "alt_km": 1346.3803637617411, "timestamp": "2025-12-10T18:57:00.460158+00:00", "meta": {"OBJECT_NAME": "COSMOS 2251 DEB", "OBJECT_ID": "1993-036ZZ", "EPOCH": "2025-12-09T14:51:16.004736", "MEAN_MOTION": 13.50545635, "ECCENTRICITY": 0.0408332, "INCLINATION": 73.9259, "RA_OF_ASC_NODE": 295.0408, "ARG_OF_PERICENTER": 315.4104, "MEAN_ANOMALY": 225.7513, "EPHEMERIS_TYPE": 0, "CLASSIFICATION_TYPE": "U", "NORAD_CAT_ID": 34755, "ELEMENT_SET_NO": 999, "REV_AT_EPOCH": 82481, "BSTAR": 0.0027358, "MEAN_MOTION_DOT": 2.929e-05, "MEAN_MOTION_DDOT": 0}, "tle": {"line1": "1 34755U 93036ZZ  25343.61893524  .00002929  00000+0  27358-2 0  9998", "line2": "2 34755  73.9259 295.0408 0408332 315.4104 225.7513 13.50545635824812"}}, "geometry": {"type": "Point", "coordinates": [79.39095833299514, 62.58432001445811]}}, {"type": "Feature", "properties": {"norad_id": 34756, "name": "COSMOS 2251 DEB", "group": "cosmos-2251-debris", "lat": -68.76250532524124, "lon": -24.84625708812659, "alt_km": 998.7994145169368, "timestamp": "2025-12-10T18:57:00.460168+00:00", "meta": {"OBJECT_NAME": "COSMOS 2251 DEB", "OBJECT_ID": "1993-036AAA", "EPOCH": "2025-12-08T18:16:00.051744", "MEAN_MOTION": 13.67230677, "ECCENTRICITY": 0.03448148, "INCLINATION": 74.0023, "RA_OF_ASC_NODE": 110.912, "ARG_OF_PERICENTER": 347.5917, "MEAN_ANOMALY": 11.686, "EPHEMERIS_TYPE": 0, "CLASSIFICATION_TYPE": "U", "NORAD_CAT_ID": 34756, "ELEMENT_SET_NO": 999, "REV_AT_EPOCH": 83367, "BSTAR": 0.0014333065, "MEAN_MOTION_DOT": 1.792e-05, "MEAN_MOTION_DDOT": 0}, "tle": {"line1": "1 34756U 93036AAA 25342.76111171  .00001792  00000+0  14333-2 0  9991", "line2": "2 34756  74.0023 110.9120 0344814 347.5917  11.6860 13.67230677833678"}}, "geometry": {"type": "Point", "coordinates": [-24.84625708812659, -68.76250532524124]}}, {"type": "Feature", "properties": {"norad_id": 34758, "name": "COSMOS 2251 DEB", "group": "cosmos-2251-debris", "lat": 69.83730793081943, "lon": -6.480738041284998, "alt_km": 757.3424306033712, "timestamp": "2025-12-10T18:57:00.460178+00:00", "meta": {"OBJECT_NAME": "COSMOS 2251 DEB", "OBJECT_ID": "1993-036AAC", "EPOCH": "2025-12-09T21:22:44.685408", "MEAN_MOTION": 13.58054621, "ECCENTRICITY": 0.03810265, "INCLINATION": 74.1074, "RA_OF_ASC_NODE": 304.0817, "ARG_OF_PERICENTER": 68.4859, "MEAN_ANOMALY": 295.6418, "EPHEMERIS_TYPE": 0, "CLASSIFICATION_TYPE": "U", "NORAD_CAT_ID": 34758, "ELEMENT_SET_NO": 999, "REV_AT_EPOCH": 82871, "BSTAR": 0.0016498758, "MEAN_MOTION_DOT": 1.899e-05, "MEAN_MOTION_DDOT": 0}, "tle": {"line1": "1 34758U 93036AAC 25343.89079497  .00001899  00000+0  16499-2 0  9995", "line2": "2 34758  74.1074 304.0817 0381026  68.4859 295.6418 13.58054621828711"}}, "geometry": {"type": "Point", "coordinates": [-6.480738041284998, 69.83730793081943]}}, {"type": "Feature", "properties": {"norad_id": 34760, "name": "COSMOS 2251 DEB", "group": "cosmos-2251-debris", "lat": -67.88673724456507, "lon": 170.52629617813668, "alt_km": 849.8920239986519, "timestamp": "2025-12-10T18:57:00.460189+00:00", "meta": {"OBJECT_NAME": "COSMOS 2251 DEB", "OBJECT_ID": "1993-036AAE", "EPOCH": "2025-12-10T04:17:30.556896", "MEAN_MOTION": 14.19557833, "ECCENTRICITY": 0.00966658, "INCLINATION": 74.0629, "RA_OF_ASC_NODE": 306.9295, "ARG_OF_PERICENTER": 359.6209, "MEAN_ANOMALY": 15.8877, "EPHEMERIS_TYPE": 0, "CLASSIFICATION_TYPE": "U", "NORAD_CAT_ID": 34760, "ELEMENT_SET_NO": 999, "REV_AT_EPOCH": 86652, "BSTAR": 0.0009281366, "MEAN_MOTION_DOT": 2.026e-05, "MEAN_MOTION_DDOT": 0}, "tle": {"line1": "1 34760U 93036AAE 25344.17882589  .00002026  00000+0  92814-3 0  9993", "line2": "2 34760  74.0629 306.9295 0096665 359.6209  15.8877 14.19557833866529"}}, "geometry": {"type": "Point", "coordinates": [170.52629617813668, -67.88673724456507]}}, {"type": "Feature", "properties": {"norad_id": 34761, "name": "COSMOS 2251 DEB", "group": "cosmos-2251-debris", "lat": 43.602242715853286, "lon": 22.212327966863693, "alt_km": 735.1264763852241, "timestamp": "2025-12-10T18:57:00.460198+00:00", "meta": {"OBJECT_NAME": "COSMOS 2251 DEB", "OBJECT_ID": "1993-036AAF", "EPOCH": "2025-12-10T12:03:38.570400", "MEAN_MOTION": 14.38036351, "ECCENTRICITY": 0.0036316, "INCLINATION": 74.0295, "RA_OF_ASC_NODE": 6.9142, "ARG_OF_PERICENTER": 41.6621, "MEAN_ANOMALY": 318.7289, "EPHEMERIS_TYPE": 0, "CLASSIFICATION_TYPE": "U", "NORAD_CAT_ID": 34761, "ELEMENT_SET_NO": 999, "REV_AT_EPOCH": 87617, "BSTAR": 0.0008536, "MEAN_MOTION_DOT": 2.578e-05, "MEAN_MOTION_DDOT": 0}, "tle": {"line1": "1 34761U 93036AAF 25344.50252975  .00002578  00000+0  85360-3 0  9991", "line2": "2 34761  74.0295   6.9142 0036316  41.6621 318.7289 14.38036351876172"}}, "geometry": {"type": "Point", "coordinates": [22.212327966863693, 43.602242715853286]}}]}